CZ-2C R/B               
1 66548U 25266D   25337.45733038  .00016531  00000+0  51628-3 0  9993
2 66548  52.0554  15.4938 0084747 141.4938 219.2135 15.29853683  2197
SHIJIAN-28              
1 66549U 25277A   25334.75466579  .00006315  00000+0  62085-3 0  9997
2 66549  14.4344 275.4056 7300519 179.5026 182.3580  2.28019775    48
CZ-7A R/B               
1 66550U 25277B   25335.16492545  .00016399 -71945-7  44604-4 0  9993
2 66550  14.4278 275.3780 7236287 178.5774 186.2906  2.40161271    57
GLOBAL-33               
1 66554U 25267A   25337.27253559  .00016435  00000+0  53931-3 0  9998
2 66554  42.0184 111.6349 0005528 345.1412  14.9262 15.31276270  1955
ELECTRON KICK STAGE R/B 
1 66555U 25267B   25337.07130826  .00030845  00000+0  97714-3 0  9996
2 66555  42.0171 112.7243 0007417 343.2499  16.8092 15.32103317  1921
STARLINK-35699          
1 66557U 25268A   25337.50003471 -.01876827  00000+0 -14000-1 0  9998
2 66557  42.9988 175.8601 0001676 277.6275 126.9579 15.75072030  3186
STARLINK-35695          
1 66558U 25268B   25337.50003471 -.01871044  00000+0 -13952-1 0  9990
2 66558  42.9989 175.8553 0001701 276.8687 129.6333 15.75068829  3180
STARLINK-35419          
1 66559U 25268C   25337.50003471 -.01873003  00000+0 -13967-1 0  9994
2 66559  42.9989 175.8509 0001832 275.2042 133.2144 15.75071158  3185
STARLINK-35411          
1 66560U 25268D   25337.50003471 -.01870327  00000+0 -13947-1 0  9990
2 66560  42.9990 175.8460 0001761 270.5343 139.8073 15.75065962  3187
STARLINK-35305          
1 66561U 25268E   25337.50003471 -.01862669  00000+0 -13884-1 0  9991
2 66561  42.9990 175.8362 0001681 261.0907 153.0814 15.75063228  3130
STARLINK-35579          
1 66562U 25268F   25337.50003471 -.01851689  00000+0 -13794-1 0  9992
2 66562  42.9991 175.8408 0001784 255.8369 156.4197 15.75054928  3183
